[{"OBJECT_NAME":"STARLINK-34950","OBJECT_ID":"2025-175V","EPOCH":"2026-03-09T14:59:22.156800","MEAN_MOTION":15.0565737,"ECCENTRICITY":0.000252,"INCLINATION":97.6017,"RA_OF_ASC_NODE":302.6406,"ARG_OF_PERICENTER":74.5682,"MEAN_ANOMALY":285.5823,"EPHEMERIS_TYPE":0,"CLASSIFICATION_TYPE":"U","NORAD_CAT_ID":65193,"ELEMENT_SET_NO":999,"REV_AT_EPOCH":3260,"BSTAR":-4.3173e-5,"MEAN_MOTION_DOT":-6.84e-6,"MEAN_MOTION_DDOT":0},{"OBJECT_NAME":"TITAN 4B DEB","OBJECT_ID":"2000-047D","EPOCH":"2026-03-09T07:18:39.687264","MEAN_MOTION":14.9350217,"ECCENTRICITY":0.00548001,"INCLINATION":67.9962,"RA_OF_ASC_NODE":173.9856,"ARG_OF_PERICENTER":92.7359,"MEAN_ANOMALY":268.0056,"EPHEMERIS_TYPE":0,"CLASSIFICATION_TYPE":"U","NORAD_CAT_ID":35415,"ELEMENT_SET_NO":999,"REV_AT_EPOCH":6621,"BSTAR":7.6847696e-5,"MEAN_MOTION_DOT":7.12e-6,"MEAN_MOTION_DDOT":0}]
